{"type": "FeatureCollection", "features": [ {"type": "Feature", "properties": {"norad_id": 66767, "name": "TRANSPORTER-15DF", "group": "last-30-days", "lat": -78.89362136365996, "lon": 113.42225605174109, "alt_km": 519.5297014288617, "timestamp": "2025-12-26T03:50:10.807391+00:00", "meta": {"OBJECT_NAME": "TRANSPORTER-15DF", "OBJECT_ID": "2025-276DF", "EPOCH": "2025-12-25T18:42:21.525120", "MEAN_MOTION": 15.18355628, "ECCENTRICITY": 0.0002047, "INCLINATION": 97.4364, "RA_OF_ASC_NODE": 71.3387, "ARG_OF_PERICENTER": 86.355, "MEAN_ANOMALY": 273.7918, "EPHEMERIS_TYPE": 0, "CLASSIFICATION_TYPE": "U", "NORAD_CAT_ID": 66767, "ELEMENT_SET_NO": 999, "REV_AT_EPOCH": 410, "BSTAR": 0.00026204, "MEAN_MOTION_DOT": 5.316e-05, "MEAN_MOTION_DDOT": 0}, "tle": {"line1": "1 66767U 25276DF  25359.77941580  .00005316  00000+0  26204-3 0  9990", "line2": "2 66767  97.4364  71.3387 0002047  86.3550 273.7918 15.18355628  4102"}}, "geometry": {"type": "Point", "coordinates": [113.42225605174109, -78.89362136365996]}}, {"type": "Feature", "properties": {"norad_id": 66768, "name": "TRANSPORTER-15DG", "group": "last-30-days", "lat": -66.68060055778528, "lon": 89.34877529643849, "alt_km": 518.5626264568391, "timestamp": "2025-12-26T03:50:10.807401+00:00", "meta": {"OBJECT_NAME": "TRANSPORTER-15DG", "OBJECT_ID": "2025-276DG", "EPOCH": "2025-12-25T18:38:45.772224", "MEAN_MOTION": 15.18568494, "ECCENTRICITY": 0.000214, "INCLINATION": 97.435, "RA_OF_ASC_NODE": 71.3378, "ARG_OF_PERICENTER": 74.9698, "MEAN_ANOMALY": 285.1773, "EPHEMERIS_TYPE": 0, "CLASSIFICATION_TYPE": "U", "NORAD_CAT_ID": 66768, "ELEMENT_SET_NO": 999, "REV_AT_EPOCH": 410, "BSTAR": 0.00053438, "MEAN_MOTION_DOT": 0.00010985, "MEAN_MOTION_DDOT": 0}, "tle": {"line1": "1 66768U 25276DG  25359.77691866  .00010985  00000+0  53438-3 0  9997", "line2": "2 66768  97.4350  71.3378 0002140  74.9698 285.1773 15.18568494  4101"}}, "geometry": {"type": "Point", "coordinates": [89.34877529643849, -66.68060055778528]}}, {"type": "Feature", "properties": {"norad_id": 66769, "name": "TRANSPORTER-15DH", "group": "last-30-days", "lat": -72.49596315639876, "lon": 96.21486570955696, "alt_km": 519.7494941421155, "timestamp": "2025-12-26T03:50:10.807411+00:00", "meta": {"OBJECT_NAME": "TRANSPORTER-15DH", "OBJECT_ID": "2025-276DH", "EPOCH": "2025-12-25T18:40:22.706976", "MEAN_MOTION": 15.18438115, "ECCENTRICITY": 0.0002738, "INCLINATION": 97.4411, "RA_OF_ASC_NODE": 71.3565, "ARG_OF_PERICENTER": 102.3679, "MEAN_ANOMALY": 257.7862, "EPHEMERIS_TYPE": 0, "CLASSIFICATION_TYPE": "U", "NORAD_CAT_ID": 66769, "ELEMENT_SET_NO": 999, "REV_AT_EPOCH": 410, "BSTAR": 0.00028657, "MEAN_MOTION_DOT": 5.834e-05, "MEAN_MOTION_DDOT": 0}, "tle": {"line1": "1 66769U 25276DH  25359.77804059  .00005834  00000+0  28657-3 0  9990", "line2": "2 66769  97.4411  71.3565 0002738 102.3679 257.7862 15.18438115  4106"}}, "geometry": {"type": "Point", "coordinates": [96.21486570955696, -72.49596315639876]}}, {"type": "Feature", "properties": {"norad_id": 66770, "name": "TRANSPORTER-15DJ", "group": "last-30-days", "lat": -71.07763878855185, "lon": 94.16557416409437, "alt_km": 520.1894037320253, "timestamp": "2025-12-26T03:50:10.807421+00:00", "meta": {"OBJECT_NAME": "TRANSPORTER-15DJ", "OBJECT_ID": "2025-276DJ", "EPOCH": "2025-12-25T17:05:03.917760", "MEAN_MOTION": 15.18411636, "ECCENTRICITY": 0.0003323, "INCLINATION": 97.4444, "RA_OF_ASC_NODE": 71.3028, "ARG_OF_PERICENTER": 116.9373, "MEAN_ANOMALY": 243.2201, "EPHEMERIS_TYPE": 0, "CLASSIFICATION_TYPE": "U", "NORAD_CAT_ID": 66770, "ELEMENT_SET_NO": 999, "REV_AT_EPOCH": 409, "BSTAR": 0.00055773, "MEAN_MOTION_DOT": 0.00011418, "MEAN_MOTION_DDOT": 0}, "tle": {"line1": "1 66770U 25276DJ  25359.71185090  .00011418  00000+0  55773-3 0  9997", "line2": "2 66770  97.4444  71.3028 0003323 116.9373 243.2201 15.18411636  4095"}}, "geometry": {"type": "Point", "coordinates": [94.16557416409437, -71.07763878855185]}}, {"type": "Feature", "properties": {"norad_id": 66771, "name": "TRANSPORTER-15DK", "group": "last-30-days", "lat": -67.97435943921064, "lon": 90.59848062162055, "alt_km": 519.7098142167206, "timestamp": "2025-12-26T03:50:10.807435+00:00", "meta": {"OBJECT_NAME": "TRANSPORTER-15DK", "OBJECT_ID": "2025-276DK", "EPOCH": "2025-12-25T17:04:13.190592", "MEAN_MOTION": 15.18506181, "ECCENTRICITY": 0.0003051, "INCLINATION": 97.4437, "RA_OF_ASC_NODE": 71.3012, "ARG_OF_PERICENTER": 109.2122, "MEAN_ANOMALY": 250.9443, "EPHEMERIS_TYPE": 0, "CLASSIFICATION_TYPE": "U", "NORAD_CAT_ID": 66771, "ELEMENT_SET_NO": 999, "REV_AT_EPOCH": 409, "BSTAR": 0.00048639, "MEAN_MOTION_DOT": 9.974e-05, "MEAN_MOTION_DDOT": 0}, "tle": {"line1": "1 66771U 25276DK  25359.71126378  .00009974  00000+0  48639-3 0  9999", "line2": "2 66771  97.4437  71.3012 0003051 109.2122 250.9443 15.18506181  4099"}}, "geometry": {"type": "Point", "coordinates": [90.59848062162055, -67.97435943921064]}}, {"type": "Feature", "properties": {"norad_id": 66772, "name": "TRANSPORTER-15DL", "group": "last-30-days", "lat": -53.291453253420634, "lon": 81.8432824416397, "alt_km": 518.4081252333935, "timestamp": "2025-12-26T03:50:10.807449+00:00", "meta": {"OBJECT_NAME": "TRANSPORTER-15DL", "OBJECT_ID": "2025-276DL", "EPOCH": "2025-12-25T18:35:09.441312", "MEAN_MOTION": 15.1873182, "ECCENTRICITY": 0.0002911, "INCLINATION": 97.4426, "RA_OF_ASC_NODE": 71.3662, "ARG_OF_PERICENTER": 96.7851, "MEAN_ANOMALY": 263.3715, "EPHEMERIS_TYPE": 0, "CLASSIFICATION_TYPE": "U", "NORAD_CAT_ID": 66772, "ELEMENT_SET_NO": 999, "REV_AT_EPOCH": 410, "BSTAR": 0.00052535, "MEAN_MOTION_DOT": 0.0001085, "MEAN_MOTION_DDOT": 0}, "tle": {"line1": "1 66772U 25276DL  25359.77441483  .00010850  00000+0  52535-3 0  9998", "line2": "2 66772  97.4426  71.3662 0002911  96.7851 263.3715 15.18731820  4104"}}, "geometry": {"type": "Point", "coordinates": [81.8432824416397, -53.291453253420634]}}, {"type": "Feature", "properties": {"norad_id": 66773, "name": "TRANSPORTER-15DM", "group": "last-30-days", "lat": -61.43016091529322, "lon": 85.63150324256912, "alt_km": 519.3863214352868, "timestamp": "2025-12-26T03:50:10.807459+00:00", "meta": {"OBJECT_NAME": "TRANSPORTER-15DM", "OBJECT_ID": "2025-276DM", "EPOCH": "2025-12-25T17:02:25.533600", "MEAN_MOTION": 15.18562173, "ECCENTRICITY": 0.0003184, "INCLINATION": 97.4425, "RA_OF_ASC_NODE": 71.2985, "ARG_OF_PERICENTER": 96.926, "MEAN_ANOMALY": 263.2336, "EPHEMERIS_TYPE": 0, "CLASSIFICATION_TYPE": "U", "NORAD_CAT_ID": 66773, "ELEMENT_SET_NO": 999, "REV_AT_EPOCH": 409, "BSTAR": 0.00047994, "MEAN_MOTION_DOT": 9.856e-05, "MEAN_MOTION_DDOT": 0}, "tle": {"line1": "1 66773U 25276DM  25359.71001775  .00009856  00000+0  47994-3 0  9996", "line2": "2 66773  97.4425  71.2985 0003184  96.9260 263.2336 15.18562173  4099"}}, "geometry": {"type": "Point", "coordinates": [85.63150324256912, -61.43016091529322]}}, {"type": "Feature", "properties": {"norad_id": 66774, "name": "TRANSPORTER-15DN", "group": "last-30-days", "lat": -58.14232260684501, "lon": 83.87847307659231, "alt_km": 518.9565101217422, "timestamp": "2025-12-26T03:50:10.807468+00:00", "meta": {"OBJECT_NAME": "TRANSPORTER-15DN", "OBJECT_ID": "2025-276DN", "EPOCH": "2025-12-25T18:36:26.130816", "MEAN_MOTION": 15.18625953, "ECCENTRICITY": 0.0003033, "INCLINATION": 97.4409, "RA_OF_ASC_NODE": 71.3592, "ARG_OF_PERICENTER": 94.5296, "MEAN_ANOMALY": 265.6285, "EPHEMERIS_TYPE": 0, "CLASSIFICATION_TYPE": "U", "NORAD_CAT_ID": 66774, "ELEMENT_SET_NO": 999, "REV_AT_EPOCH": 410, "BSTAR": 0.00050122, "MEAN_MOTION_DOT": 0.00010316, "MEAN_MOTION_DDOT": 0}, "tle": {"line1": "1 66774U 25276DN  25359.77530244  .00010316  00000+0  50122-3 0  9991", "line2": "2 66774  97.4409  71.3592 0003033  94.5296 265.6285 15.18625953  4100"}}, "geometry": {"type": "Point", "coordinates": [83.87847307659231, -58.14232260684501]}}, {"type": "Feature", "properties": {"norad_id": 66775, "name": "PHI 1", "group": "last-30-days", "lat": -53.3385981533642, "lon": 81.81774083019923, "alt_km": 517.6386964882495, "timestamp": "2025-12-26T03:50:10.807478+00:00", "meta": {"OBJECT_NAME": "PHI 1", "OBJECT_ID": "2025-276DP", "EPOCH": "2025-12-25T17:00:16.130592", "MEAN_MOTION": 15.18685285, "ECCENTRICITY": 0.0002715, "INCLINATION": 97.4334, "RA_OF_ASC_NODE": 71.2716, "ARG_OF_PERICENTER": 63.296, "MEAN_ANOMALY": 296.8552, "EPHEMERIS_TYPE": 0, "CLASSIFICATION_TYPE": "U", "NORAD_CAT_ID": 66775, "ELEMENT_SET_NO": 999, "REV_AT_EPOCH": 409, "BSTAR": 0.00036878, "MEAN_MOTION_DOT": 7.583e-05, "MEAN_MOTION_DDOT": 0}, "tle": {"line1": "1 66775U 25276DP  25359.70852003  .00007583  00000+0  36878-3 0  9999", "line2": "2 66775  97.4334  71.2716 0002715  63.2960 296.8552 15.18685285  4097"}}, "geometry": {"type": "Point", "coordinates": [81.81774083019923, -53.3385981533642]}}, {"type": "Feature", "properties": {"norad_id": 66776, "name": "TRANSPORTER-15DQ", "group": "last-30-days", "lat": -50.82334760964575, "lon": 80.95299115402211, "alt_km": 517.7688024654944, "timestamp": "2025-12-26T03:50:10.807492+00:00", "meta": {"OBJECT_NAME": "TRANSPORTER-15DQ", "OBJECT_ID": "2025-276DQ", "EPOCH": "2025-12-25T18:34:29.832960", "MEAN_MOTION": 15.18753272, "ECCENTRICITY": 0.000281, "INCLINATION": 97.437, "RA_OF_ASC_NODE": 71.3493, "ARG_OF_PERICENTER": 79.7546, "MEAN_ANOMALY": 280.4005, "EPHEMERIS_TYPE": 0, "CLASSIFICATION_TYPE": "U", "NORAD_CAT_ID": 66776, "ELEMENT_SET_NO": 999, "REV_AT_EPOCH": 410, "BSTAR": 0.0009864, "MEAN_MOTION_DOT": 0.0002047, "MEAN_MOTION_DDOT": 0}, "tle": {"line1": "1 66776U 25276DQ  25359.77395640  .00020470  00000+0  98640-3 0  9991", "line2": "2 66776  97.4370  71.3493 0002810  79.7546 280.4005 15.18753272  4105"}}, "geometry": {"type": "Point", "coordinates": [80.95299115402211, -50.82334760964575]}}]}